#cP2022 11 17  0  0  0.00000000      96 ORBIT IGb14 HLM  IGS
## 2236 345600.00000000   900.00000000 59900 0.0000000000000
+   31   G01G02G03G04G05G06G07G08G09G10G11G12G13G14G15G16G17
+        G18G19G20G21G22G23G24G25G26G27G29G30G31G32  0  0  0
+          0  0  0  0  0  0  0  0  0  0  0  0  0  0  0  0  0
+          0  0  0  0  0  0  0  0  0  0  0  0  0  0  0  0  0
+          0  0  0  0  0  0  0  0  0  0  0  0  0  0  0  0  0
++         2  2  2  2  2  2  2  1  2  2  3  2  2  2  2  2  1
++         2  2  2  2  2  2  1  2  2  1  2  2  2  2  0  0  0
++         0  0  0  0  0  0  0  0  0  0  0  0  0  0  0  0  0
++         0  0  0  0  0  0  0  0  0  0  0  0  0  0  0  0  0
++         0  0  0  0  0  0  0  0  0  0  0  0  0  0  0  0  0
%c G  cc GPS ccc cccc cccc cccc cccc ccccc ccccc ccccc ccccc
%c cc cc ccc ccc cccc cccc cccc cccc ccccc ccccc ccccc ccccc
%f  1.2500000  1.025000000  0.00000000000  0.000000000000000
%f  0.0000000  0.000000000  0.00000000000  0.000000000000000
%i    0    0    0    0      0      0      0      0         0
%i    0    0    0    0      0      0      0      0         0
/* FINAL ORBIT COMBINATION FROM WEIGHTED AVERAGE OF:        
/* cod emr esa gfz grg jpl mit ngs sio                      
/* REFERENCED TO IGS TIME (IGST) AND TO WEIGHTED MEAN POLE: 
/* PCV:IGS20_2233 OL/AL:FES2004  NONE     Y  ORB:CMB CLK:CMB
*  2022 11 17 19 30  0.00000000
PG01 -22425.868356 -14564.114596    348.279386    250.359737  4  5  4  77       
PG02  23847.797433  11125.311799  -2027.163407   -637.396810     4  3  97       
PG03 -12160.812768 -14026.431649  18914.355594   -373.211323  5  4  3  74       
PG04 -19393.704004  -4419.479317  17654.026801    -84.699468  8  3  7  85       
PG05   6723.201765  23787.727782  -9724.258239   -104.675422  2  5  2  68       
PG06  -7062.108174  12852.338739  22207.950216    520.531434  6  6  5  84       
PG07 -22764.244030  -3437.458037 -13235.691129    286.189711  4  6  4  67       
PG08 -10254.665310 -11615.556507 -21643.980627    -94.287807  4  4  5  95       
PG09 -24260.532433   5959.145042   9006.402592   -267.205444  3  3  5  65       
PG10  11347.584713 -17919.973704 -15627.017391    -12.316190  6  3  2  92       
PG11   4970.439364  18915.729692  17994.663011    -41.330835  8  8  6  92       
PG12  10943.258928  15482.869484  18374.612123   -305.417062  5  7  5  98       
PG13   1260.348277  15412.385300 -21750.215325    426.351175  3  8  4  51       
PG14 -13247.461147  15728.803693 -16737.966592    -81.650385  4  4  5  79       
PG15  12024.079399  11043.888972 -21423.453802    -11.590341  5  6     59       
PG16   -513.792573 -25736.857428  -5735.070224   -526.879508  6  8  6 121       
PG17 -22577.467949  13416.654044   4659.587567    678.726179  2  4     84       
PG18  21515.824784   1596.594862 -15585.996311    -25.637643  3  5  7  84       
PG19 -15554.743188  16115.112338  13839.266460    238.678187  3  5  2 100       
PG20    400.625051  26419.647731   3741.988985    469.413916  5  7  4  86       
PG21 -19943.623963 -16308.123229  -7303.623948    155.842513  3  6  2  91       
PG22  12232.229423 -17382.358294  16239.751966    366.574889     5  5  76       
PG23  14544.634518  -6887.336710 -21109.322461     -0.961621  6  5  5  84       
PG24  21778.208752  15087.136257  -4302.190377     54.819312  5  6  2  88       
PG25  14970.620618   3750.805169  21340.733854    393.563684  5  4  4  95       
PG26   4313.632067 -25202.927038   6416.493321    236.073631  3  4  5 101       
PG27   2131.193802 -16928.448687 -20465.711557    175.693361  4  5  4  97       
PG29  24229.661052  -2537.817080  10633.948269   -567.888489  5  6  4  86       
PG30 -15671.518952   7410.770239 -20094.702681   -536.604351  5  6     80       
PG31   6427.494678 -13981.322692  21459.461196   -200.493756  4  5  5  69       
PG32  20084.008870 -15934.074231   6681.582951   -299.502886  7  6  6  89       
*  2022 11 17 19 45  0.00000000
PG01 -22272.263743 -14642.434303  -2539.093378    250.354684  4  6  4  59       
PG02  23857.186474  11414.483047    852.227592   -637.395071  2  4  3 101       
PG03 -12017.856260 -16111.891305  17294.492341   -373.212916  5  4  3  75       
PG04 -17584.428372  -5499.434038  19170.844211    -84.693373  8  3  7  83       
PG05   6518.440783  24737.434438  -7078.045801   -104.676709  2  4  2  82       
PG06  -9214.673191  11550.547728  22140.709226    520.539492  6  5  4  94       
PG07 -23878.424059  -4354.931950 -10913.730313    286.185376  4  5  4  80       
PG08  -8125.368806 -12877.825845 -21800.783790    -94.289047  4  4  5  83       
PG09 -23361.198243   5152.878384  11507.159364   -267.200297  3  4  5  74       
PG10  11487.325865 -15986.822683 -17518.114011    -12.316972  6  2  2 103       
PG11   3123.128894  17829.566891  19456.730001    -41.336281  8  7  6  88       
PG12  10633.207446  17513.601392  16689.477001   -305.421252  5  8  5  91       
PG13  -1009.320128  16244.717647 -21127.574073    426.357295  3  8  4  39       
PG14 -13322.475540  13705.223473 -18386.393431    -81.645658  4  4  6  67       
PG15  10129.778330  12480.341439 -21591.761680    -11.587435  5  6     58       
PG16   -203.125743 -26176.066458  -2896.055403   -526.879545  6  7  6 113       
PG17 -22952.086883  13375.509000   1808.155546    678.729596  1  4     75       
PG18  22837.584005   2601.573704 -13433.067273    -25.650326  3  4  7  77       
PG19 -17000.975354  16519.985672  11477.617683    238.682727  3  4  2  94       
PG20     44.826348  25886.833190   6474.269071    469.411973  5  6  5  80       
PG21 -18924.420573 -16025.265719  -9886.158911    155.841507  3  6  2  52       
PG22  13835.518784 -17914.443122  14175.376650    366.581998     5  5  76       
PG23  14636.267549  -4440.911387 -21706.373814     -0.961404  6  6  5  64       
PG24  21112.613473  15077.821613  -6981.954266     54.804756  5  6  2  84       
PG25  14921.415454   6224.193100  20822.681827    393.566985  5  4  4  94       
PG26   4687.686174 -24312.524285   9047.671448    236.074650  4  3  5  92       
PG27   4134.836542 -17929.029074 -19221.694854    175.685460  4  5  4 101       
PG29  23070.189179  -1813.628586  13065.227236   -567.891056  5  5  3  88       
PG30 -17532.402099   6131.408203 -18985.047572   -536.603972  4  6  1  71       
PG31   8559.799869 -12678.534135  21564.392461   -200.494858  3  5  5  75       
PG32  20730.923270 -15995.798399   3905.356431   -299.514298  7  6  6  93       
*  2022 11 17 20  0  0.00000000
PG01 -21840.573680 -14575.910598  -5383.832203    250.349721  5  6  4  76       
PG02  23582.740693  11571.298293   3716.849750   -637.393633  2  5  3  99       
PG03 -11979.643365 -17999.611433  15375.537251   -373.214486  5  4  2  70       
PG04 -15702.085233  -6751.226833  20358.841678    -84.687321  8  4  7  81       
PG05   6334.627206  25391.981251  -4309.791868   -104.678672  3  4  2  88       
PG06 -11411.234994  10386.598187  21694.991917    520.547618  6  5  3  90       
PG07 -24794.483645  -5083.152688  -8405.005771    286.180954  5  5  4  83       
PG08  -6064.705862 -14249.799718 -21583.811982    -94.290076  5  5  5  86       
PG09 -22278.130256   4149.567825  13809.559509   -267.195136  3  4  5  68       
PG10  11740.277315 -13866.238224 -19100.573666    -12.318096  7  2  3  96       
PG11   1094.392390  16768.177728  20584.538014    -41.341744  8  5  6  89       
PG12  10436.821947  19346.617510  14712.736001   -305.425477  6  8  5  89       
PG13  -3151.246939  17160.445525 -20145.852599    426.363433  2  8  4  61       
PG14 -13500.877084  11520.086368 -19717.039269    -81.640904  4  4  6  79       
PG15   8306.241268  14008.252799 -21403.121929    -11.584765  6  5  1  62       
PG16     72.973327 -26303.795898     -5.951698   -526.879485  6  7  6 115       
PG17 -23047.475408  13194.036174  -1074.121926    678.732526  1  4     70       
PG18  23986.088610   3410.882322 -11050.574564    -25.662958  4  4  7  91       
PG19 -18169.939844  16875.886925   8913.394022    238.686856  2  4  2  90       
PG20   -399.711883  25078.072399   9096.658543    469.409527  5  6  5  78       
PG21 -17625.019274 -15691.750959 -12301.054986    155.840997  3  6  2  93       
PG22  15195.958908 -18414.778419  11871.079549    366.589130  1  4  5  82       
PG23  14862.522672  -1957.912852 -21929.669809     -0.961095  5  6  5  71       
PG24  20179.753630  14987.391480  -9545.626746     54.790179  5  6  2  80       
PG25  14993.095181   8613.256039  19938.224885    393.570341  5  4  3  92       
PG26   5134.078389 -23152.165026  11519.594513    236.075531  4  2  5  92       
PG27   5952.474320 -18950.666535 -17648.732550    175.677511  4  5  4 102       
PG29  21720.673797   -901.148398  15272.019280   -567.893740  5  5  3  87       
PG30 -19324.244246   5012.833060 -17548.668710   -536.603596  3  6  2  67       
PG31  10743.047943 -11492.478159  21293.174942   -200.495776  4  4  5  72       
PG32  21107.519436 -15915.276778   1061.273493   -299.525722  7  6  6 102       
EOF
